GLOBALSTAR M084         
1 38040U 11080A   25191.65785273 -.00000101  00000+0  15054-4 0  9997
2 38040  52.0031 337.0221 0001100  97.1333 276.5812 12.62266988625637
GLOBALSTAR M080         
1 38041U 11080B   25191.72834971 -.00000104  00000+0 -14414-5 0  9990
2 38041  52.0081 338.4077 0000729 137.7412 325.8404 12.62263825625768
GLOBALSTAR M082         
1 38042U 11080C   25191.67378194 -.00000088  00000+0  86826-4 0  9990
2 38042  52.0088 294.0379 0000572 161.2427 345.1159 12.62267026626469
GLOBALSTAR M092         
1 38043U 11080D   25191.71176897 -.00000087  00000+0  92885-4 0  9993
2 38043  52.0100  24.2984 0000862  85.5363 353.2968 12.62264674624922
GLOBALSTAR M090         
1 38044U 11080E   25191.51233668 -.00000076  00000+0  15342-3 0  9992
2 38044  52.0134 288.3723 0000436 125.0869 248.5739 12.62260691626561
GLOBALSTAR M086         
1 38045U 11080F   25191.53853199 -.00000080  00000+0  13190-3 0  9996
2 38045  51.9907 288.7774 0001065  46.9971 326.4185 12.62272312626511
GLOBALSTAR M097         
1 39072U 13005A   25191.32466824 -.00000088  00000+0  87215-4 0  9996
2 39072  52.0019 203.9978 0000102   1.2927 358.7940 12.62265654573732
GLOBALSTAR M093         
1 39073U 13005B   25191.69424489 -.00000098  00000+0  34650-4 0  9994
2 39073  51.9783 196.1381 0000166 330.2809  29.8048 12.62266064573735
